NORAD_CAT_ID,OBJECT_NAME,OBJECT_TYPE,EPOCH,MEAN_MOTION,ECCENTRICITY,INCLINATION,RA_OF_ASC_NODE,ARG_OF_PERICENTER,MEAN_ANOMALY,BSTAR,MEAN_MOTION_DOT,MEAN_MOTION_DDOT,TLE_LINE0,TLE_LINE1,TLE_LINE2,SEMIMAJOR_AXIS,PERIOD,APOGEE,PERIGEE,DECAYED
51724.0,STARLINK-3529,PAYLOAD,2023-04-08 15:19:43,15.08841057,0.0001127,53.2172,74.8069,92.7073,267.4048,2.1016e-05,4.7e-07,0.0,0 STARLINK-3529,1 51724U 22016L   23098.63869375  .00000047  00000-0  21016-4 0  9994,2 51724  53.2172  74.8069 0001127  92.7073 267.4048 15.08841057 63542,6917.877,95.437,540.522,538.963,0.0
51724.0,STARLINK-3529,PAYLOAD,2023-04-09 04:02:48,15.08830741,0.0001204,53.2182,72.4293,91.7931,268.3199,5.6228e-05,6.07e-06,0.0,0 STARLINK-3529,1 51724U 22016L   23099.16862243  .00000607  00000-0  56228-4 0  9995,2 51724  53.2182  72.4293 0001204  91.7931 268.3199 15.08830741 63628,6917.909,95.438,540.607,538.941,0.0
51724.0,STARLINK-3529,PAYLOAD,2023-04-09 10:24:21,15.08838344,0.0001308,53.2171,71.2379,85.3894,274.7248,5.6901e-05,6.18e-06,0.0,0 STARLINK-3529,1 51724U 22016L   23099.43357791  .00000618  00000-0  56901-4 0  9992,2 51724  53.2171  71.2379 0001308  85.3894 274.7248 15.08838344 63667,6917.885,95.438,540.655,538.846,0.0
51724.0,STARLINK-3529,PAYLOAD,2023-04-09 15:10:30,15.08835608,0.0001326,53.2172,70.3458,83.0065,277.1078,3.6582e-05,2.94e-06,0.0,0 STARLINK-3529,1 51724U 22016L   23099.63230053  .00000294  00000-0  36582-4 0  9998,2 51724  53.2172  70.3458 0001326  83.0065 277.1078 15.08835608 62635,6917.894,95.438,540.676,538.842,0.0
51724.0,STARLINK-3529,PAYLOAD,2023-04-10 10:15:07,15.08851201,0.0001138,53.2173,66.7781,87.0748,273.0375,6.8919e-05,8.1e-06,0.0,0 STARLINK-3529,1 51724U 22016L   23100.42717000  .00000810  00000-0  68919-4 0  9993,2 51724  53.2173  66.7781 0001138  87.0748 273.0375 15.08851201 63810,6917.846,95.437,540.498,538.924,0.0
51724.0,STARLINK-3529,PAYLOAD,2023-04-10 21:22:49,15.08841726,0.0001365,53.2174,64.6974,85.313,274.8018,8.1411e-05,1.008e-05,0.0,0 STARLINK-3529,1 51724U 22016L   23100.89085553  .00001008  00000-0  81411-4 0  9997,2 51724  53.2174  64.6974 0001365  85.3130 274.8018 15.08841726 63881,6917.875,95.437,540.684,538.796,0.0
51724.0,STARLINK-3529,PAYLOAD,2023-04-11 03:44:22,15.08841053,0.0001131,53.2166,63.5064,102.0486,258.0633,0.00014899,2.084e-05,0.0,0 STARLINK-3529,1 51724U 22016L   23101.15581223  .00002084  00000-0  14899-3 0  9992,2 51724  53.2166  63.5064 0001131 102.0486 258.0633 15.08841053 62869,6917.877,95.437,540.525,538.96,0.0
51724.0,STARLINK-3529,PAYLOAD,2023-04-12 06:45:55,15.08845562,0.0001004,53.2177,58.4508,93.7929,266.3178,2.494e-05,1.09e-06,0.0,0 STARLINK-3529,1 51724U 22016L   23102.28189432  .00000109  00000-0  24940-4 0  9998,2 51724  53.2177  58.4508 0001004  93.7929 266.3178 15.08845562 63039,6917.863,95.437,540.423,539.034,0.0
51724.0,STARLINK-3529,PAYLOAD,2023-04-13 06:36:42,15.08851227,0.000118,53.2183,53.9879,107.412,252.7001,1.5047e-05,-4.8e-07,0.0,0 STARLINK-3529,1 51724U 22016L   23103.27548895 -.00000048  00000-0  15047-4 0  9991,2 51724  53.2183  53.9879 0001180 107.4120 252.7001 15.08851227 63183,6917.846,95.437,540.527,538.895,0.0
51724.0,STARLINK-3529,PAYLOAD,2023-04-14 06:27:29,15.08845605,8.95e-05,53.218,49.5291,100.0507,260.0587,0.00011406,1.528e-05,0.0,0 STARLINK-3529,1 51724U 22016L   23104.26909161  .00001528  00000-0  11406-3 0  9995,2 51724  53.2180  49.5291 0000895 100.0507 260.0587 15.08845605 64397,6917.863,95.437,540.347,539.109,0.0
51724.0,STARLINK-3529,PAYLOAD,2023-04-14 23:56:44,15.08841043,9.54e-05,53.2173,46.2595,99.2464,260.8636,-5.092e-05,-1.098e-05,0.0,0 STARLINK-3529,1 51724U 22016L   23104.99774151 -.00001098  00000-0 -50920-4 0  9993,2 51724  53.2173  46.2595 0000954  99.2464 260.8636 15.08841043 64505,6917.877,95.437,540.402,539.082,0.0
51724.0,STARLINK-3529,PAYLOAD,2023-04-15 06:18:16,15.08847855,9.41e-05,53.2168,45.0695,97.2998,262.8101,2.5886e-05,1.24e-06,0.0,0 STARLINK-3529,1 51724U 22016L   23105.26269522  .00000124  00000-0  25886-4 0  9995,2 51724  53.2168  45.0695 0000941  97.2998 262.8101 15.08847855 64543,6917.856,95.437,540.372,539.07,0.0
51724.0,STARLINK-3529,PAYLOAD,2023-04-16 04:33:41,15.08844249,0.0001124,53.2179,40.9064,83.8718,276.2402,4.1262e-05,3.69e-06,0.0,0 STARLINK-3529,1 51724U 22016L   23106.19006076  .00000369  00000-0  41262-4 0  9998,2 51724  53.2179  40.9064 0001124  83.8718 276.2402 15.08844249 64686,6917.867,95.437,540.51,538.955,0.0
51724.0,STARLINK-3529,PAYLOAD,2023-04-17 05:59:50,15.08852352,0.0001001,53.2176,36.1486,103.9795,256.1309,0.0001742,2.487e-05,0.0,0 STARLINK-3529,1 51724U 22016L   23107.24989346  .00002487  00000-0  17420-3 0  9996,2 51724  53.2176  36.1486 0001001 103.9795 256.1309 15.08852352 64846,6917.843,95.437,540.4,539.015,0.0
51724.0,STARLINK-3529,PAYLOAD,2023-04-17 18:42:57,15.08831633,0.0001247,53.2188,33.7672,96.8432,263.2702,3.8794e-05,3.29e-06,0.0,0 STARLINK-3529,1 51724U 22016L   23107.77983298  .00000329  00000-0  38794-4 0  9995,2 51724  53.2188  33.7672 0001247  96.8432 263.2702 15.08831633 63865,6917.906,95.438,540.634,538.908,0.0
51724.0,STARLINK-3529,PAYLOAD,2023-04-18 04:15:15,15.08846858,0.0001198,53.2175,31.9851,94.4203,265.6927,5.5098e-05,5.89e-06,0.0,0 STARLINK-3529,1 51724U 22016L   23108.17726223  .00000589  00000-0  55098-4 0  9997,2 51724  53.2175  31.9851 0001198  94.4203 265.6927 15.08846858 63922,6917.859,95.437,540.553,538.896,0.0
51724.0,STARLINK-3529,PAYLOAD,2023-04-19 04:06:02,15.08846381,0.0001133,53.2182,27.5247,101.6049,258.507,1.5104e-06,-2.64e-06,0.0,0 STARLINK-3529,1 51724U 22016L   23109.17086597 -.00000264  00000-0  15104-5 0  9997,2 51724  53.2182  27.5247 0001133 101.6049 258.5070 15.08846381 64076,6917.861,95.437,540.51,538.942,0.0
51724.0,STARLINK-3529,PAYLOAD,2023-04-20 03:56:48,15.0886057,0.000116,53.2186,23.0651,92.6743,267.4382,0.00018403,2.644e-05,0.0,0 STARLINK-3529,1 51724U 22016L   23110.16445086  .00002644  00000-0  18403-3 0  9996,2 51724  53.2186  23.0651 0001160  92.6743 267.4382 15.08860570 65285,6917.818,95.436,540.485,538.88,0.0
51724.0,STARLINK-3529,PAYLOAD,2023-04-21 03:47:37,15.08834765,0.0001201,53.218,18.6051,79.084,281.0288,-2.988e-05,-7.63e-06,0.0,0 STARLINK-3529,1 51724U 22016L   23111.15807723 -.00000763  00000-0 -29880-4 0  9990,2 51724  53.2180  18.6051 0001201  79.0840 281.0288 15.08834765 65437,6917.896,95.438,540.592,538.931,0.0
51724.0,STARLINK-3529,PAYLOAD,2023-04-21 18:06:05,15.08847159,0.0001057,53.2178,15.9297,81.681,278.4302,-3.2881e-05,-8.11e-06,0.0,0 STARLINK-3529,1 51724U 22016L   23111.75423066 -.00000811  00000-0 -32881-4 0  9999,2 51724  53.2178  15.9297 0001057  81.6810 278.4302 15.08847159 65529,6917.859,95.437,540.455,538.992,0.0
51724.0,STARLINK-3529,PAYLOAD,2023-04-22 02:03:00,15.08860418,0.0001124,53.2174,14.4435,85.9105,274.2015,6.6025e-05,7.64e-06,0.0,0 STARLINK-3529,1 51724U 22016L   23112.08541680  .00000764  00000-0  66025-4 0  9991,2 51724  53.2174  14.4435 0001124  85.9105 274.2015 15.08860418 65575,6917.818,95.436,540.461,538.905,0.0
51724.0,STARLINK-3529,PAYLOAD,2023-04-22 17:56:52,15.08825119,9.92e-05,53.218,11.4704,94.0004,266.1101,0.00022027,3.218e-05,0.0,0 STARLINK-3529,1 51724U 22016L   23112.74783369  .00003218  00000-0  22027-3 0  9996,2 51724  53.2180  11.4704 0000992  94.0004 266.1101 15.08825119 64618,6917.926,95.438,540.477,539.105,0.0
51724.0,STARLINK-3529,PAYLOAD,2023-04-23 00:18:24,15.08839688,0.0001219,53.2179,10.2811,102.4576,257.6552,0.00023078,3.387e-05,0.0,0 STARLINK-3529,1 51724U 22016L   23113.01278542  .00003387  00000-0  23078-3 0  9993,2 51724  53.2179  10.2811 0001219 102.4576 257.6552 15.08839688 65716,6917.881,95.438,540.59,538.903,0.0
51724.0,STARLINK-3529,PAYLOAD,2023-04-23 17:47:39,15.0884158,0.0001131,53.2185,7.0095,89.9041,270.208,-2.6767e-05,-7.14e-06,0.0,0 STARLINK-3529,1 51724U 22016L   23113.74143262 -.00000714  00000-0 -26767-4 0  9995,2 51724  53.2185   7.0095 0001131  89.9041 270.2080 15.08841580 65823,6917.876,95.437,540.523,538.958,0.0
51724.0,STARLINK-3529,PAYLOAD,2023-04-24 03:19:57,15.08852877,0.0001401,53.2185,5.2245,102.1098,258.0051,6.8087e-05,7.96e-06,0.0,0 STARLINK-3529,1 51724U 22016L   23114.13886280  .00000796  00000-0  68087-4 0  9992,2 51724  53.2185   5.2245 0001401 102.1098 258.0051 15.08852877 64822,6917.841,95.437,540.675,538.737,0.0
51724.0,STARLINK-3529,PAYLOAD,2023-04-24 17:38:24,15.08867289,0.0001009,53.2169,2.5492,95.5291,264.5816,0.00031499,4.732e-05,0.0,0 STARLINK-3529,1 51724U 22016L   23114.73500738  .00004732  00000-0  31499-3 0  9999,2 51724  53.2169   2.5492 0001009  95.5291 264.5816 15.08867289 65973,6917.797,95.436,540.36,538.964,0.0
51724.0,STARLINK-3529,PAYLOAD,2023-04-24 23:59:56,15.0887819,9.83e-05,53.2176,1.3603,95.0944,265.016,0.00041712,6.364e-05,0.0,0 STARLINK-3529,1 51724U 22016L   23114.99995662  .00006364  00000-0  41712-3 0  9993,2 51724  53.2176   1.3603 0000983  95.0944 265.0160 15.08878190 66019,6917.764,95.435,540.309,538.949,0.0
51724.0,STARLINK-3529,PAYLOAD,2023-04-25 22:15:24,15.08806834,7.83e-05,53.2185,357.1968,77.7725,282.3355,-0.0002305,-3.951e-05,0.0,0 STARLINK-3529,1 51724U 22016L   23115.92737209 -.00003951  00000-0 -23050-3 0  9994,2 51724  53.2185 357.1968 0000783  77.7725 282.3355 15.08806834 66156,6917.982,95.44,540.388,539.305,0.0
51724.0,STARLINK-3529,PAYLOAD,2023-04-26 01:26:10,15.08804686,0.0001082,53.2173,356.6017,89.9505,270.1611,-0.00048589,-8.005e-05,0.0,0 STARLINK-3529,1 51724U 22016L   23116.05984032 -.00008005  00000-0 -48589-3 0  9996,2 51724  53.2173 356.6017 0001082  89.9505 270.1611 15.08804686 65114,6917.988,95.44,540.602,539.105,0.0
51724.0,STARLINK-3529,PAYLOAD,2023-04-26 22:06:11,15.0882549,7.32e-05,53.217,352.7386,36.6974,323.4068,-0.00014762,-2.635e-05,0.0,0 STARLINK-3529,1 51724U 22016L   23116.92096804 -.00002635  00000-0 -14762-3 0  9992,2 51724  53.2170 352.7386 0000732  36.6974 323.4068 15.08825490 65245,6917.925,95.438,540.296,539.283,0.0
